GPS BIIRM-8 (PRN 05)    
1 35752U 09043A   24142.57205921 -.00000068  00000+0  00000+0 0  9995
2 35752  55.6523  57.3416 0056341  70.9581 142.2275  2.00570801108189
